NORAD_CAT_ID,OBJECT_NAME,OBJECT_TYPE,EPOCH,MEAN_MOTION,ECCENTRICITY,INCLINATION,RA_OF_ASC_NODE,ARG_OF_PERICENTER,MEAN_ANOMALY,BSTAR,MEAN_MOTION_DOT,MEAN_MOTION_DDOT,TLE_LINE0,TLE_LINE1,TLE_LINE2,SEMIMAJOR_AXIS,PERIOD,APOGEE,PERIGEE,DECAYED
51788.0,STARLINK-3641,PAYLOAD,2024-01-02 04:21:17,15.08850759,0.0001519,53.2179,329.2752,88.3848,271.7318,0.00011518,1.546e-05,0.0,0 STARLINK-3641,1 51788U 22017W   24002.18145688  .00001546  00000-0  11518-3 0  9995,2 51788  53.2179 329.2752 0001519  88.3848 271.7318 15.08850759103521,6917.848,95.437,540.763,538.662,0.0
51788.0,STARLINK-3641,PAYLOAD,2024-01-02 21:50:33,15.08838268,0.0001507,53.2182,326.0045,88.3552,271.7612,6.7538e-05,7.87e-06,0.0,0 STARLINK-3641,1 51788U 22017W   24002.91010620  .00000787  00000-0  67538-4 0  9993,2 51788  53.2182 326.0045 0001507  88.3552 271.7612 15.08838268103634,6917.886,95.438,540.793,538.708,0.0
51788.0,STARLINK-3641,PAYLOAD,2024-01-03 02:36:42,15.0883972,0.0001615,53.2183,325.1124,106.3087,253.8083,7.2965e-05,8.73e-06,0.0,0 STARLINK-3641,1 51788U 22017W   24003.10882462  .00000873  00000-0  72965-4 0  9992,2 51788  53.2183 325.1124 0001615 106.3087 253.8083 15.08839720103667,6917.881,95.438,540.863,538.629,0.0
51788.0,STARLINK-3641,PAYLOAD,2024-01-03 07:22:51,15.08841037,0.0001562,53.2184,324.2195,96.7975,263.3194,7.3657e-05,8.84e-06,0.0,0 STARLINK-3641,1 51788U 22017W   24003.30754437  .00000884  00000-0  73657-4 0  9995,2 51788  53.2184 324.2195 0001562  96.7975 263.3194 15.08841037103691,6917.877,95.437,540.823,538.662,0.0
51788.0,STARLINK-3641,PAYLOAD,2024-01-04 02:27:29,15.08839496,0.0001533,53.218,320.6492,104.7859,255.3303,-5.4623e-05,-1.157e-05,0.0,0 STARLINK-3641,1 51788U 22017W   24004.10243000 -.00001157  00000-0 -54623-4 0  9991,2 51788  53.2180 320.6492 0001533 104.7859 255.3303 15.08839496103819,6917.882,95.438,540.807,538.686,0.0
51788.0,STARLINK-3641,PAYLOAD,2024-01-05 05:29:02,15.08847231,0.0001437,53.2182,315.5941,95.6739,264.4417,0.00011057,1.473e-05,0.0,0 STARLINK-3641,1 51788U 22017W   24005.22850170  .00001473  00000-0  11057-3 0  9999,2 51788  53.2182 315.5941 0001437  95.6739 264.4417 15.08847231103982,6917.858,95.437,540.717,538.729,0.0
51788.0,STARLINK-3641,PAYLOAD,2024-01-06 03:44:27,15.08840279,0.0001464,53.2185,311.4332,87.805,272.3109,8.3752e-05,1.045e-05,0.0,0 STARLINK-3641,1 51788U 22017W   24006.15586957  .00001045  00000-0  83752-4 0  9998,2 51788  53.2185 311.4332 0001464  87.8050 272.3109 15.08840279104121,6917.88,95.438,540.757,538.732,0.0
51788.0,STARLINK-3641,PAYLOAD,2024-01-06 05:19:49,15.08843672,0.000148,53.2187,311.1345,94.149,265.9671,0.00010972,1.459e-05,0.0,0 STARLINK-3641,1 51788U 22017W   24006.22210648  .00001459  00000-0  10972-3 0  9999,2 51788  53.2187 311.1345 0001480  94.1490 265.9671 15.08843672104134,6917.869,95.437,540.758,538.71,0.0
51788.0,STARLINK-3641,PAYLOAD,2024-01-06 19:38:18,15.088437,0.0001504,53.2185,308.4633,106.0921,254.0237,-8.8381e-06,-4.29e-06,0.0,0 STARLINK-3641,1 51788U 22017W   24006.81827059 -.00000429  00000-0 -88381-5 0  9993,2 51788  53.2185 308.4633 0001504 106.0921 254.0237 15.08843700104229,6917.869,95.437,540.775,538.694,0.0
51788.0,STARLINK-3641,PAYLOAD,2024-01-07 03:35:14,15.08843669,0.0001478,53.2186,306.9735,88.7714,271.3448,8.2603e-06,-1.57e-06,0.0,0 STARLINK-3641,1 51788U 22017W   24007.14947014 -.00000157  00000-0  82603-5 0  9992,2 51788  53.2186 306.9735 0001478  88.7714 271.3448 15.08843669104277,6917.869,95.437,540.757,538.712,0.0
51788.0,STARLINK-3641,PAYLOAD,2024-01-07 19:29:06,15.08838506,0.0001441,53.2181,304.0007,93.4575,266.6582,-6.5416e-06,-3.92e-06,0.0,0 STARLINK-3641,1 51788U 22017W   24007.81187549 -.00000392  00000-0 -65416-5 0  9990,2 51788  53.2181 304.0007 0001441  93.4575 266.6582 15.08838506104372,6917.885,95.438,540.747,538.753,0.0
51788.0,STARLINK-3641,PAYLOAD,2024-01-08 01:50:38,15.0884214,0.0001413,53.2178,302.8113,95.2868,264.8285,1.8555e-05,7e-08,0.0,0 STARLINK-3641,1 51788U 22017W   24008.07683227  .00000007  00000-0  18555-4 0  9995,2 51788  53.2178 302.8113 0001413  95.2868 264.8285 15.08842140104410,6917.874,95.437,540.716,538.761,0.0
51788.0,STARLINK-3641,PAYLOAD,2024-01-08 22:30:39,15.08837845,0.0001387,53.2176,298.9454,98.3692,261.7457,7.0425e-05,8.33e-06,0.0,0 STARLINK-3641,1 51788U 22017W   24008.93795378  .00000833  00000-0  70425-4 0  9992,2 51788  53.2176 298.9454 0001387  98.3692 261.7457 15.08837845104547,6917.887,95.438,540.711,538.792,0.0
51788.0,STARLINK-3641,PAYLOAD,2024-01-09 01:41:25,15.08843616,0.0001376,53.2177,298.3507,89.8894,270.2256,9.0375e-05,1.151e-05,0.0,0 STARLINK-3641,1 51788U 22017W   24009.07043027  .00001151  00000-0  90375-4 0  9995,2 51788  53.2177 298.3507 0001376  89.8894 270.2256 15.08843616104565,6917.869,95.437,540.686,538.782,0.0
51788.0,STARLINK-3641,PAYLOAD,2024-01-09 22:21:26,15.08842417,0.000133,53.2175,294.4851,88.1324,271.982,6.2038e-05,7e-06,0.0,0 STARLINK-3641,1 51788U 22017W   24009.93155187  .00000700  00000-0  62038-4 0  9995,2 51788  53.2175 294.4851 0001330  88.1324 271.9820 15.08842417104699,6917.873,95.437,540.658,538.818,0.0
51788.0,STARLINK-3641,PAYLOAD,2024-01-10 01:32:12,15.08848133,0.0001463,53.2182,293.8866,100.2186,259.8971,4.7275e-05,4.65e-06,0.0,0 STARLINK-3641,1 51788U 22017W   24010.06402803  .00000465  00000-0  47275-4 0  9995,2 51788  53.2182 293.8866 0001463 100.2186 259.8971 15.08848133104711,6917.856,95.437,540.733,538.708,0.0
51788.0,STARLINK-3641,PAYLOAD,2024-01-11 04:33:45,15.08849732,0.0001503,53.2189,288.8307,114.0213,246.0936,-0.00012613,-2.295e-05,0.0,0 STARLINK-3641,1 51788U 22017W   24011.19011128 -.00002295  00000-0 -12613-3 0  9998,2 51788  53.2189 288.8307 0001503 114.0213 246.0936 15.08849732104884,6917.851,95.437,540.755,538.676,0.0
51788.0,STARLINK-3641,PAYLOAD,2024-01-11 18:52:14,15.08822002,0.000172,53.2186,286.1533,114.1783,245.9389,0.00014233,1.977e-05,0.0,0 STARLINK-3641,1 51788U 22017W   24011.78628021  .00001977  00000-0  14233-3 0  9993,2 51788  53.2186 286.1533 0001720 114.1783 245.9389 15.08822002104978,6917.935,95.439,540.99,538.611,0.0
51788.0,STARLINK-3641,PAYLOAD,2024-01-11 22:03:00,15.08839307,0.0001548,53.2183,285.5584,112.4014,247.7142,-2.1636e-05,-6.32e-06,0.0,0 STARLINK-3641,1 51788U 22017W   24011.91875656 -.00000632  00000-0 -21636-4 0  9991,2 51788  53.2183 285.5584 0001548 112.4014 247.7142 15.08839307104995,6917.883,95.438,540.818,538.677,0.0
51788.0,STARLINK-3641,PAYLOAD,2024-01-11 23:38:23,15.0884337,0.000154,53.2173,285.2618,115.1942,244.921,-2.4342e-06,-3.27e-06,0.0,0 STARLINK-3641,1 51788U 22017W   24011.98499331 -.00000327  00000-0 -24342-5 0  9999,2 51788  53.2173 285.2618 0001540 115.1942 244.9210 15.08843370105004,6917.87,95.437,540.8,538.67,0.0
51788.0,STARLINK-3641,PAYLOAD,2024-01-12 21:53:48,15.08835875,0.0001289,53.2168,281.1045,101.0552,259.0585,-1.5229e-05,-5.3e-06,0.0,0 STARLINK-3641,1 51788U 22017W   24012.91236428 -.00000530  00000-0 -15229-4 0  9998,2 51788  53.2168 281.1045 0001289 101.0552 259.0585 15.08835875105146,6917.893,95.438,540.65,538.866,0.0
51788.0,STARLINK-3641,PAYLOAD,2024-01-13 02:39:57,15.08840424,0.0001348,53.2176,280.2101,101.1953,258.9191,3.3389e-05,2.44e-06,0.0,0 STARLINK-3641,1 51788U 22017W   24013.11108022  .00000244  00000-0  33389-4 0  9996,2 51788  53.2176 280.2101 0001348 101.1953 258.9191 15.08840424105170,6917.879,95.438,540.677,538.812,0.0
51788.0,STARLINK-3641,PAYLOAD,2024-01-14 02:30:44,15.08848464,0.0001275,53.2171,275.7508,93.6616,266.4521,0.00010579,1.397e-05,0.0,0 STARLINK-3641,1 51788U 22017W   24014.10467662  .00001397  00000-0  10579-3 0  9999,2 51788  53.2171 275.7508 0001275  93.6616 266.4521 15.08848464105325,6917.855,95.437,540.602,538.837,0.0
51788.0,STARLINK-3641,PAYLOAD,2024-01-14 21:35:22,15.08842077,0.0001336,53.2169,272.1821,83.8855,276.229,9.9612e-05,1.298e-05,0.0,0 STARLINK-3641,1 51788U 22017W   24014.89956154  .00001298  00000-0  99612-4 0  9990,2 51788  53.2169 272.1821 0001336  83.8855 276.2290 15.08842077105444,6917.874,95.437,540.663,538.815,0.0
51788.0,STARLINK-3641,PAYLOAD,2024-01-15 02:21:30,15.08855261,0.0001501,53.2175,271.2892,90.9393,269.1771,0.00019114,2.757e-05,0.0,0 STARLINK-3641,1 51788U 22017W   24015.09827040  .00002757  00000-0  19114-3 0  9993,2 51788  53.2175 271.2892 0001501  90.9393 269.1771 15.08855261105476,6917.834,95.437,540.737,538.66,0.0
51788.0,STARLINK-3641,PAYLOAD,2024-01-16 02:12:18,15.08849124,0.0001545,53.2174,266.8277,102.8086,257.3079,3.2743e-05,2.33e-06,0.0,0 STARLINK-3641,1 51788U 22017W   24016.09187574  .00000233  00000-0  32743-4 0  9996,2 51788  53.2174 266.8277 0001545 102.8086 257.3079 15.08849124105620,6917.853,95.437,540.786,538.649,0.0
51788.0,STARLINK-3641,PAYLOAD,2024-01-16 19:41:32,15.08846642,0.000194,53.217,263.5563,112.7309,247.3888,-6.1241e-05,-1.263e-05,0.0,0 STARLINK-3641,1 51788U 22017W   24016.82051974 -.00001263  00000-0 -61241-4 0  9992,2 51788  53.2170 263.5563 0001940 112.7309 247.3888 15.08846642105736,6917.86,95.437,541.067,538.383,0.0
51788.0,STARLINK-3641,PAYLOAD,2024-01-16 21:16:56,15.08846131,0.0001765,53.2175,263.2594,109.6775,250.4408,-6.5632e-05,-1.333e-05,0.0,0 STARLINK-3641,1 51788U 22017W   24016.88676004 -.00001333  00000-0 -65632-4 0  9991,2 51788  53.2175 263.2594 0001765 109.6775 250.4408 15.08846131105746,6917.862,95.437,540.948,538.506,0.0
51788.0,STARLINK-3641,PAYLOAD,2024-01-17 11:35:24,15.08845525,0.0001557,53.217,260.5869,96.9661,263.1508,-8.794e-05,-1.688e-05,0.0,0 STARLINK-3641,1 51788U 22017W   24017.48292023 -.00001688  00000-0 -87940-4 0  9992,2 51788  53.2170 260.5869 0001557  96.9661 263.1508 15.08845525105835,6917.864,95.437,540.806,538.651,0.0
51788.0,STARLINK-3641,PAYLOAD,2024-01-17 19:32:20,15.08840086,0.0001633,53.2168,259.0996,113.9472,246.1691,2.0351e-05,3.6e-07,0.0,0 STARLINK-3641,1 51788U 22017W   24017.81412485  .00000036  00000-0  20351-4 0  9992,2 51788  53.2168 259.0996 0001633 113.9472 246.1691 15.08840086105887,6917.88,95.438,540.875,538.615,0.0
